start=new Date('2022-07-20T00:00:00.000Z').valueOf();
sats=[{"MEAN_MOTION_DDOT":"0.0000000000000","LAUNCH_DATE":"2021-03-04","FILE":"3517796","ECCENTRICITY":"0.00013080","REV_AT_EPOCH":"7772","INCLINATION":"53.0543","APOAPSIS":"548.100","TLE_LINE1":"1 47751U 21017AF  22200.82200427  .00004758  00000-0  33806-3 0  9993","OBJECT_ID":"2021-017AF","SITE":"AFETR","ARG_OF_PERICENTER":"58.0907","TLE_LINE2":"2 47751  53.0543  37.1324 0001308  58.0907 302.0209 15.06406276 77723","MEAN_ANOMALY":"302.0209","CENTER_NAME":"EARTH","CLASSIFICATION_TYPE":"U","OBJECT_NAME":"STARLINK-2168","GP_ID":"208470121","MEAN_MOTION":"15.06406276","ELEMENT_SET_NO":"999","RCS_SIZE":"LARGE","MEAN_MOTION_DOT":"0.00004758","MEAN_ELEMENT_THEORY":"SGP4","EPOCH":"2022-07-19T19:43:41.168928","BSTAR":"0.00033806000000","RA_OF_ASC_NODE":"37.1324","PERIAPSIS":"546.288","COUNTRY_CODE":"US","NORAD_CAT_ID":"47751","SEMIMAJOR_AXIS":"6925.329","PERIOD":"95.592","REF_FRAME":"TEME","DECAY_DATE":null,"OBJECT_TYPE":"PAYLOAD","EPHEMERIS_TYPE":"0","TIME_SYSTEM":"UTC"},{"OBJECT_TYPE":"PAYLOAD","REF_FRAME":"TEME","DECAY_DATE":null,"EPHEMERIS_TYPE":"0","TIME_SYSTEM":"UTC","SEMIMAJOR_AXIS":"6925.357","PERIOD":"95.592","COUNTRY_CODE":"US","NORAD_CAT_ID":"47752","RA_OF_ASC_NODE":"51.9885","BSTAR":"0.00010184000000","MEAN_ELEMENT_THEORY":"SGP4","EPOCH":"2022-07-19T20:32:07.259712","PERIAPSIS":"546.249","RCS_SIZE":"MEDIUM","MEAN_MOTION_DOT":"0.00001236","TLE_LINE2":"2 47752  53.0548  51.9885 0001404  80.9894 279.1253 15.06397350 77568","CLASSIFICATION_TYPE":"U","CENTER_NAME":"EARTH","MEAN_ANOMALY":"279.1253","GP_ID":"208471373","MEAN_MOTION":"15.06397350","ELEMENT_SET_NO":"999","OBJECT_NAME":"STARLINK-2169","TLE_LINE1":"1 47752U 21017AG  22200.85563958  .00001236  00000-0  10184-3 0  9990","SITE":"AFETR","OBJECT_ID":"2021-017AG","ARG_OF_PERICENTER":"80.9894","REV_AT_EPOCH":"7756","INCLINATION":"53.0548","APOAPSIS":"548.194","ECCENTRICITY":"0.00014040","MEAN_MOTION_DDOT":"0.0000000000000","FILE":"3517796","LAUNCH_DATE":"2021-03-04"},{"PERIAPSIS":"546.173","EPOCH":"2022-07-19T21:32:29.508000","MEAN_ELEMENT_THEORY":"SGP4","BSTAR":"0.00041473000000","RA_OF_ASC_NODE":"56.8068","RCS_SIZE":"LARGE","MEAN_MOTION_DOT":"0.00005903","TIME_SYSTEM":"UTC","EPHEMERIS_TYPE":"0","DECAY_DATE":null,"REF_FRAME":"TEME","OBJECT_TYPE":"PAYLOAD","NORAD_CAT_ID":"47753","COUNTRY_CODE":"US","PERIOD":"95.591","SEMIMAJOR_AXIS":"6925.309","ECCENTRICITY":"0.00014460","LAUNCH_DATE":"2021-03-04","FILE":"3517796","MEAN_MOTION_DDOT":"0.0000000000000","OBJECT_NAME":"STARLINK-2170","GP_ID":"208471624","MEAN_MOTION":"15.06412768","ELEMENT_SET_NO":"999","CENTER_NAME":"EARTH","MEAN_ANOMALY":"286.2542","CLASSIFICATION_TYPE":"U","TLE_LINE2":"2 47753  53.0543  56.8068 0001446  73.8606 286.2542 15.06412768 77492","INCLINATION":"53.0543","APOAPSIS":"548.176","REV_AT_EPOCH":"7749","ARG_OF_PERICENTER":"73.8606","OBJECT_ID":"2021-017AH","TLE_LINE1":"1 47753U 21017AH  22200.89756375  .00005903  00000-0  41473-3 0  9992","SITE":"AFETR"},{"NORAD_CAT_ID":"47754","COUNTRY_CODE":"US","PERIOD":"95.592","SEMIMAJOR_AXIS":"6925.331","TIME_SYSTEM":"UTC","EPHEMERIS_TYPE":"0","DECAY_DATE":null,"REF_FRAME":"TEME","OBJECT_TYPE":"PAYLOAD","RCS_SIZE":"LARGE","MEAN_MOTION_DOT":"0.00005023","PERIAPSIS":"546.206","EPOCH":"2022-07-19T20:50:01.929696","MEAN_ELEMENT_THEORY":"SGP4","BSTAR":"0.00035584000000","RA_OF_ASC_NODE":"56.9457","APOAPSIS":"548.186","INCLINATION":"53.0548","REV_AT_EPOCH":"7745","ARG_OF_PERICENTER":"68.9302","SITE":"AFETR","TLE_LINE1":"1 47754U 21017AJ  22200.86807789  .00005023  00000-0  35584-3 0  9995","OBJECT_ID":"2021-017AJ","OBJECT_NAME":"STARLINK-2171","GP_ID":"208470372","ELEMENT_SET_NO":"999","MEAN_MOTION":"15.06405766","MEAN_ANOMALY":"291.1839","CENTER_NAME":"EARTH","CLASSIFICATION_TYPE":"U","TLE_LINE2":"2 47754  53.0548  56.9457 0001430  68.9302 291.1839 15.06405766 77452","LAUNCH_DATE":"2021-03-04","FILE":"3517796","MEAN_MOTION_DDOT":"0.0000000000000","ECCENTRICITY":"0.00014300"},{"MEAN_MOTION_DOT":"0.00001195","RCS_SIZE":"LARGE","BSTAR":"0.00009910400000","RA_OF_ASC_NODE":"56.9562","MEAN_ELEMENT_THEORY":"SGP4","EPOCH":"2022-07-19T20:44:43.639008","PERIAPSIS":"546.154","SEMIMAJOR_AXIS":"6925.373","PERIOD":"95.593","COUNTRY_CODE":"US","NORAD_CAT_ID":"47756","OBJECT_TYPE":"PAYLOAD","REF_FRAME":"TEME","DECAY_DATE":null,"EPHEMERIS_TYPE":"0","TIME_SYSTEM":"UTC","MEAN_MOTION_DDOT":"0.0000000000000","FILE":"3517796","LAUNCH_DATE":"2021-03-04","ECCENTRICITY":"0.00015650","TLE_LINE1":"1 47756U 21017AL  22200.86439397  .00001195  00000-0  99104-4 0  9998","OBJECT_ID":"2021-017AL","SITE":"AFETR","ARG_OF_PERICENTER":"71.1470","REV_AT_EPOCH":"7749","INCLINATION":"53.0557","APOAPSIS":"548.322","TLE_LINE2":"2 47756  53.0557  56.9562 0001565  71.1470 288.9689 15.06392027 77498","CENTER_NAME":"EARTH","MEAN_ANOMALY":"288.9689","CLASSIFICATION_TYPE":"U","ELEMENT_SET_NO":"999","GP_ID":"208470622","MEAN_MOTION":"15.06392027","OBJECT_NAME":"STARLINK-2174"},{"FILE":"3517796","LAUNCH_DATE":"2021-03-04","MEAN_MOTION_DDOT":"0.0000000000000","ECCENTRICITY":"0.00016480","SITE":"AFETR","TLE_LINE1":"1 47757U 21017AM  22200.91600025  .00007211  00000-0  50237-3 0  9991","OBJECT_ID":"2021-017AM","ARG_OF_PERICENTER":"72.1986","REV_AT_EPOCH":"7744","INCLINATION":"53.0530","APOAPSIS":"548.327","MEAN_MOTION":"15.06408973","GP_ID":"208470873","ELEMENT_SET_NO":"999","OBJECT_NAME":"STARLINK-2175","TLE_LINE2":"2 47757  53.0530  56.7195 0001648  72.1986 287.9182 15.06408973 77445","CENTER_NAME":"EARTH","MEAN_ANOMALY":"287.9182","CLASSIFICATION_TYPE":"U","RCS_SIZE":"LARGE","MEAN_MOTION_DOT":"0.00007211","PERIAPSIS":"546.045","BSTAR":"0.00050237000000","RA_OF_ASC_NODE":"56.7195","MEAN_ELEMENT_THEORY":"SGP4","EPOCH":"2022-07-19T21:59:02.421600","SEMIMAJOR_AXIS":"6925.321","PERIOD":"95.592","COUNTRY_CODE":"US","NORAD_CAT_ID":"47757","EPHEMERIS_TYPE":"0","TIME_SYSTEM":"UTC","OBJECT_TYPE":"PAYLOAD","REF_FRAME":"TEME","DECAY_DATE":null},{"MEAN_ANOMALY":"282.6211","CENTER_NAME":"EARTH","CLASSIFICATION_TYPE":"U","TLE_LINE2":"2 47760  53.0556  66.8788 0001784  77.4978 282.6211 15.06406611 77337","MEAN_MOTION":"15.06406611","GP_ID":"208471124","ELEMENT_SET_NO":"999","OBJECT_NAME":"STARLINK-2178","ARG_OF_PERICENTER":"77.4978","TLE_LINE1":"1 47760U 21017AQ  22200.88189601  .00003397  00000-0  24682-3 0  9999","SITE":"AFETR","OBJECT_ID":"2021-017AQ","INCLINATION":"53.0556","APOAPSIS":"548.429","REV_AT_EPOCH":"7733","ECCENTRICITY":"0.00017840","MEAN_MOTION_DDOT":"0.0000000000000","FILE":"3517796","LAUNCH_DATE":"2021-03-04","OBJECT_TYPE":"PAYLOAD","DECAY_DATE":null,"REF_FRAME":"TEME","TIME_SYSTEM":"UTC","EPHEMERIS_TYPE":"0","PERIOD":"95.592","SEMIMAJOR_AXIS":"6925.328","NORAD_CAT_ID":"47760","COUNTRY_CODE":"US","RA_OF_ASC_NODE":"66.8788","BSTAR":"0.00024682000000","EPOCH":"2022-07-19T21:09:55.815264","MEAN_ELEMENT_THEORY":"SGP4","PERIAPSIS":"545.958","RCS_SIZE":"LARGE","MEAN_MOTION_DOT":"0.00003397"},{"ECCENTRICITY":"0.00016920","MEAN_MOTION_DDOT":"0.0000000000000","FILE":"3517796","LAUNCH_DATE":"2021-03-04","MEAN_ANOMALY":"267.1323","CLASSIFICATION_TYPE":"U","CENTER_NAME":"EARTH","TLE_LINE2":"2 47761  53.0546  56.7383 0001692  92.9859 267.1323 15.06402091 77457","GP_ID":"208469873","ELEMENT_SET_NO":"999","MEAN_MOTION":"15.06402091","OBJECT_NAME":"STARLINK-2179","ARG_OF_PERICENTER":"92.9859","SITE":"AFETR","TLE_LINE1":"1 47761U 21017AR  22200.91230990  .00003053  00000-0  22373-3 0  9996","OBJECT_ID":"2021-017AR","INCLINATION":"53.0546","APOAPSIS":"548.379","REV_AT_EPOCH":"7745","BSTAR":"0.00022373000000","RA_OF_ASC_NODE":"56.7383","EPOCH":"2022-07-19T21:53:43.575360","MEAN_ELEMENT_THEORY":"SGP4","PERIAPSIS":"546.035","MEAN_MOTION_DOT":"0.00003053","RCS_SIZE":"LARGE","OBJECT_TYPE":"PAYLOAD","DECAY_DATE":null,"REF_FRAME":"TEME","TIME_SYSTEM":"UTC","EPHEMERIS_TYPE":"0","PERIOD":"95.592","SEMIMAJOR_AXIS":"6925.342","NORAD_CAT_ID":"47761","COUNTRY_CODE":"US"},{"MEAN_MOTION":"15.06404703","GP_ID":"208470122","ELEMENT_SET_NO":"999","OBJECT_NAME":"STARLINK-2180","CLASSIFICATION_TYPE":"U","MEAN_ANOMALY":"298.9161","CENTER_NAME":"EARTH","TLE_LINE2":"2 47762  53.0558  71.6341 0001827  61.2011 298.9161 15.06404703 77263","ARG_OF_PERICENTER":"61.2011","TLE_LINE1":"1 47762U 21017AS  22200.93856847  .00000926  00000-0  81076-4 0  9996","OBJECT_ID":"2021-017AS","SITE":"AFETR","INCLINATION":"53.0558","APOAPSIS":"548.464","REV_AT_EPOCH":"7726","ECCENTRICITY":"0.00018270","FILE":"3517796","LAUNCH_DATE":"2021-03-04","MEAN_MOTION_DDOT":"0.0000000000000","TIME_SYSTEM":"UTC","EPHEMERIS_TYPE":"0","OBJECT_TYPE":"PAYLOAD","DECAY_DATE":null,"REF_FRAME":"TEME","PERIOD":"95.592","SEMIMAJOR_AXIS":"6925.334","NORAD_CAT_ID":"47762","COUNTRY_CODE":"US","PERIAPSIS":"545.934","BSTAR":"0.00008107600000","RA_OF_ASC_NODE":"71.6341","EPOCH":"2022-07-19T22:31:32.315808","MEAN_ELEMENT_THEORY":"SGP4","RCS_SIZE":"LARGE","MEAN_MOTION_DOT":"0.00000926"},{"REF_FRAME":"TEME","DECAY_DATE":null,"OBJECT_TYPE":"PAYLOAD","EPHEMERIS_TYPE":"0","TIME_SYSTEM":"UTC","COUNTRY_CODE":"US","NORAD_CAT_ID":"47763","SEMIMAJOR_AXIS":"6925.341","PERIOD":"95.592","MEAN_ELEMENT_THEORY":"SGP4","EPOCH":"2022-07-19T21:18:33.340896","RA_OF_ASC_NODE":"61.8552","BSTAR":"0.00011763000000","PERIAPSIS":"546.170","MEAN_MOTION_DOT":"0.00001471","RCS_SIZE":"LARGE","TLE_LINE2":"2 47763  53.0558  61.8552 0001496  81.1061 279.0097 15.06402473 77379","CLASSIFICATION_TYPE":"U","CENTER_NAME":"EARTH","MEAN_ANOMALY":"279.0097","OBJECT_NAME":"STARLINK-2181","MEAN_MOTION":"15.06402473","GP_ID":"208471374","ELEMENT_SET_NO":"999","REV_AT_EPOCH":"7737","APOAPSIS":"548.242","INCLINATION":"53.0558","TLE_LINE1":"1 47763U 21017AT  22200.88788589  .00001471  00000-0  11763-3 0  9999","OBJECT_ID":"2021-017AT","SITE":"AFETR","ARG_OF_PERICENTER":"81.1061","ECCENTRICITY":"0.00014960","MEAN_MOTION_DDOT":"0.0000000000000","LAUNCH_DATE":"2021-03-04","FILE":"3517796"}];
